[{"OBJECT_NAME":"BIRKELAND","OBJECT_ID":"2023-001G","EPOCH":"2026-03-09T22:29:53.413728","MEAN_MOTION":15.38193984,"ECCENTRICITY":0.00086916,"INCLINATION":97.3442,"RA_OF_ASC_NODE":136.7431,"ARG_OF_PERICENTER":103.0889,"MEAN_ANOMALY":257.1326,"EPHEMERIS_TYPE":0,"CLASSIFICATION_TYPE":"U","NORAD_CAT_ID":55015,"ELEMENT_SET_NO":999,"REV_AT_EPOCH":17708,"BSTAR":0.00029912141,"MEAN_MOTION_DOT":0.00011186,"MEAN_MOTION_DDOT":0},{"OBJECT_NAME":"STARLINK-6070","OBJECT_ID":"2023-078AM","EPOCH":"2026-03-09T22:00:01.999584","MEAN_MOTION":15.33868458,"ECCENTRICITY":0.00035577,"INCLINATION":70.001,"RA_OF_ASC_NODE":321.9382,"ARG_OF_PERICENTER":287.8141,"MEAN_ANOMALY":182.2971,"EPHEMERIS_TYPE":0,"CLASSIFICATION_TYPE":"U","NORAD_CAT_ID":56802,"ELEMENT_SET_NO":999,"REV_AT_EPOCH":575,"BSTAR":0.031099255,"MEAN_MOTION_DOT":0.0111992,"MEAN_MOTION_DDOT":0}]
